O3B FM5                 
1 39188U 13031A   26073.49189989 -.00000021  00000+0  00000+0 0  9994
2 39188   0.0994  11.3133 0003289 333.1293  15.5439  5.00116471232291
O3B FM4                 
1 39189U 13031B   26072.41173487 -.00000022  00000+0  00000+0 0  9993
2 39189   0.0547 345.1246 0005098  15.5435 359.3289  5.00115278232249
O3B FM2                 
1 39190U 13031C   26073.27696491 -.00000021  00000+0  00000+0 0  9994
2 39190   0.0550 338.8712 0002822  11.3990   9.7208  5.00116009232367
O3B PFM                 
1 39191U 13031D   26065.09556941 -.00000026  00000+0  00000+0 0  9996
2 39191   0.0668   7.2787 0005147 352.3292   0.3862  5.00115906231517
O3B FM3                 
1 40079U 14038A   26073.55759634 -.00000020  00000+0  00000+0 0  9999
2 40079   0.0529 353.7169 0000644  62.9955 303.2902  5.00115628208302
O3B FM7                 
1 40080U 14038B   26072.30434378 -.00000022  00000+0  00000+0 0  9990
2 40080   0.0586 348.6070 0004384 352.5506  18.8225  5.00115635213082
O3B FM6                 
1 40081U 14038C   26073.53069173 -.00000020  00000+0  00000+0 0  9992
2 40081   0.0547 351.2967 0002639   1.0784   7.6174  5.00115702213095
O3B FM8                 
1 40082U 14038D   26073.18422220 -.00000021  00000+0  00000+0 0  9991
2 40082   0.0555 350.6132 0002647   4.5116   4.8690  5.00116014213198
O3B FM10                
1 40348U 14083A   26070.41282342 -.00000024  00000+0  00000+0 0  9991
2 40348   0.0429 348.2570 0002651   1.0660  10.6675  5.00115268204999
O3B FM11                
1 40349U 14083B   26073.42390003 -.00000021  00000+0  00000+0 0  9997
2 40349   0.0572   0.2592 0003091 341.0605  18.6654  5.00115618205167
O3B FM12                
1 40350U 14083C   26073.45098790 -.00000021  00000+0  00000+0 0  9990
2 40350   0.0566 359.5721 0002613 347.2376  13.1799  5.00115991205184
O3B FM9                 
1 40351U 14083D   26073.27792811 -.00000021  00000+0  00000+0 0  9996
2 40351   0.0584   0.4641 0002718 351.8476   7.6806  5.00115942205325
LEO 1 (LEO VANTAGE 1)   
1 43113U 18004C   26073.61624663  .00006011  00000+0  41691-3 0  9998
2 43113  99.2472 339.5756 0352524   9.8225 350.9635 14.67241047423615
O3B FM15                
1 43231U 18024A   26073.54458555 -.00000020  00000+0  00000+0 0  9998
2 43231   0.0491   1.4158 0002675 348.4607  10.1147  5.00115732146289
O3B FM16                
1 43232U 18024B   26073.39706448 -.00000021  00000+0  00000+0 0  9990
2 43232   0.0455   3.7254 0002807 343.2116  13.0522  5.00115912146208
O3B FM14                
1 43233U 18024C   26071.63880927 -.00000023  00000+0  00000+0 0  9993
2 43233   0.0439   2.7730 0002842 349.0319   8.1868  5.00115666146122
O3B FM13                
1 43234U 18024D   26072.10444450 -.00000022  00000+0  00000+0 0  9993
2 43234   0.0487 334.7219 0003796 336.3210  48.9207  5.00115630146258
O3B FM20                
1 44112U 19020A   26073.46384828 -.00000021  00000+0  00000+0 0  9997
2 44112   0.0522   0.0201 0002760 341.4113  18.5550  5.00115522126833
O3B FM19                
1 44113U 19020B   26073.49096494 -.00000021  00000+0  00000+0 0  9990
2 44113   0.0584 353.1534 0004215 353.6375  13.1945  5.00115992126699
O3B FM17                
1 44114U 19020C   26072.77146366 -.00000022  00000+0  00000+0 0  9996
2 44114   0.0382 342.2165 0002664   5.4523  12.3211  5.00115442126752
O3B FM18                
1 44115U 19020D   26073.51732291 -.00000020  00000+0  00000+0 0  9996
2 44115   0.0525   0.3193 0002728 354.0751   5.5990  5.00115259126914
SALSAT                  
1 46495U 20068K   26073.51831201  .00012617  00000+0  46004-3 0  9996
2 46495  97.8858  70.9296 0008068 275.9056  84.1263 15.28293668300898
O3B MPOWER F1           
1 54755U 22174A   26073.45567101 -.00000021  00000+0  00000+0 0  9991
2 54755   0.0635 350.4497 0005435  19.2147  99.1230  5.00114976 60626
O3B MPOWER F2           
1 54756U 22174B   26062.53384886 -.00000028  00000+0  00000+0 0  9993
2 54756   0.1272 326.2177 0046125  76.0907 318.0389  5.00690325 60150
O3B MPOWER F4           
1 56367U 23059A   26048.24074746 -.00000015  00000+0  00000+0 0  9995
2 56367   0.0593   7.9241 0006460 334.3658  17.6828  5.00119607 52601
